{
  "type": "FeatureCollection",
  "features": [
    {
      "type": "Feature",
      "properties": {
        "norad_id": 31275,
        "name": "FENGYUN 1C DEB",
        "group": "fengyun-1c-debris",
        "lat": -60.31217583490022,
        "lon": -152.26666048001135,
        "alt_km": 869.2003785736779,
        "timestamp": "2025-12-26T16:33:55.852507+00:00",
        "meta_object_name": "FENGYUN 1C DEB",
        "meta_object_id": "1999-025BNH",
        "meta_epoch": "2025-12-24T01:45:49.783104",
        "meta_mean_motion": 14.02351369,
        "meta_eccentricity": 0.0103496,
        "meta_inclination": 98.9438,
        "meta_ra_of_asc_node": 41.2001,
        "meta_arg_of_pericenter": 321.1011,
        "meta_mean_anomaly": 38.2739,
        "meta_ephemeris_type": 0,
        "meta_classification_type": "U",
        "meta_norad_cat_id": 31275,
        "meta_element_set_no": 999,
        "meta_rev_at_epoch": 95645,
        "meta_bstar": 0.00084641644,
        "meta_mean_motion_dot": 1.317e-05,
        "meta_mean_motion_ddot": 0,
        "tle_line1": "1 31275U 99025BNH 25358.07349286  .00001317  00000+0  84642-3 0  9993",
        "tle_line2": "2 31275  98.9438  41.2001 0103496 321.1011  38.2739 14.02351369956456"
      },
      "geometry": {
        "type": "Point",
        "coordinates": [
          -152.26666048001135,
          -60.31217583490022
        ]
      }
    },
    {
      "type": "Feature",
      "properties": {
        "norad_id": 31279,
        "name": "FENGYUN 1C DEB",
        "group": "fengyun-1c-debris",
        "lat": 16.20985961577994,
        "lon": -168.90855498954144,
        "alt_km": 756.7776394535158,
        "timestamp": "2025-12-26T16:33:55.852516+00:00",
        "meta_object_name": "FENGYUN 1C DEB",
        "meta_object_id": "1999-025BNM",
        "meta_epoch": "2025-12-25T06:08:02.060160",
        "meta_mean_motion": 14.2633542,
        "meta_eccentricity": 0.0074243,
        "meta_inclination": 98.5169,
        "meta_ra_of_asc_node": 7.1994,
        "meta_arg_of_pericenter": 141.2243,
        "meta_mean_anomaly": 219.4299,
        "meta_ephemeris_type": 0,
        "meta_classification_type": "U",
        "meta_norad_cat_id": 31279,
        "meta_element_set_no": 999,
        "meta_rev_at_epoch": 97407,
        "meta_bstar": 0.00044407,
        "meta_mean_motion_dot": 1.056e-05,
        "meta_mean_motion_ddot": 0,
        "tle_line1": "1 31279U 99025BNM 25359.25557940  .00001056  00000+0  44407-3 0  9991",
        "tle_line2": "2 31279  98.5169   7.1994 0074243 141.2243 219.4299 14.26335420974072"
      },
      "geometry": {
        "type": "Point",
        "coordinates": [
          -168.90855498954144,
          16.20985961577994
        ]
      }
    },
    {
      "type": "Feature",
      "properties": {
        "norad_id": 31281,
        "name": "FENGYUN 1C DEB",
        "group": "fengyun-1c-debris",
        "lat": 7.465179504856164,
        "lon": 136.2014544822261,
        "alt_km": 451.2681529546162,
        "timestamp": "2025-12-26T16:33:55.852525+00:00",
        "meta_object_name": "FENGYUN 1C DEB",
        "meta_object_id": "1999-025BNP",
        "meta_epoch": "2025-12-25T19:58:06.115872",
        "meta_mean_motion": 15.18079619,
        "meta_eccentricity": 0.01121747,
        "meta_inclination": 98.3853,
        "meta_ra_of_asc_node": 136.3584,
        "meta_arg_of_pericenter": 47.2531,
        "meta_mean_anomaly": 313.8073,
        "meta_ephemeris_type": 0,
        "meta_classification_type": "U",
        "meta_norad_cat_id": 31281,
        "meta_element_set_no": 999,
        "meta_rev_at_epoch": 99930,
        "meta_bstar": 0.0010808671,
        "meta_mean_motion_dot": 0.00025968,
        "meta_mean_motion_ddot": 0,
        "tle_line1": "1 31281U 99025BNP 25359.83201523  .00025968  00000+0  10809-2 0  9997",
        "tle_line2": "2 31281  98.3853 136.3584 0112174  47.2531 313.8073 15.18079619999303"
      },
      "geometry": {
        "type": "Point",
        "coordinates": [
          136.2014544822261,
          7.465179504856164
        ]
      }
    },
    {
      "type": "Feature",
      "properties": {
        "norad_id": 31282,
        "name": "FENGYUN 1C DEB",
        "group": "fengyun-1c-debris",
        "lat": -76.35551692662872,
        "lon": 57.123198354277626,
        "alt_km": 666.7481216546103,
        "timestamp": "2025-12-26T16:33:55.852534+00:00",
        "meta_object_name": "FENGYUN 1C DEB",
        "meta_object_id": "1999-025BNQ",
        "meta_epoch": "2025-12-25T12:44:35.954016",
        "meta_mean_motion": 14.43490809,
        "meta_eccentricity": 0.0126915,
        "meta_inclination": 99.2176,
        "meta_ra_of_asc_node": 277.855,
        "meta_arg_of_pericenter": 248.5077,
        "meta_mean_anomaly": 110.2539,
        "meta_ephemeris_type": 0,
        "meta_classification_type": "U",
        "meta_norad_cat_id": 31282,
        "meta_element_set_no": 999,
        "meta_rev_at_epoch": 97305,
        "meta_bstar": 0.000217,
        "meta_mean_motion_dot": 7.51e-06,
        "meta_mean_motion_ddot": 0,
        "tle_line1": "1 31282U 99025BNQ 25359.53097169  .00000751  00000+0  21700-3 0  9990",
        "tle_line2": "2 31282  99.2176 277.8550 0126915 248.5077 110.2539 14.43490809973050"
      },
      "geometry": {
        "type": "Point",
        "coordinates": [
          57.123198354277626,
          -76.35551692662872
        ]
      }
    },
    {
      "type": "Feature",
      "properties": {
        "norad_id": 31284,
        "name": "FENGYUN 1C DEB",
        "group": "fengyun-1c-debris",
        "lat": 56.70818422693272,
        "lon": 80.77171035321159,
        "alt_km": 812.0888598152305,
        "timestamp": "2025-12-26T16:33:55.852543+00:00",
        "meta_object_name": "FENGYUN 1C DEB",
        "meta_object_id": "1999-025BNS",
        "meta_epoch": "2025-12-23T12:42:57.818304",
        "meta_mean_motion": 13.97914234,
        "meta_eccentricity": 0.01423046,
        "meta_inclination": 99.7207,
        "meta_ra_of_asc_node": 92.5583,
        "meta_arg_of_pericenter": 29.6928,
        "meta_mean_anomaly": 331.2216,
        "meta_ephemeris_type": 0,
        "meta_classification_type": "U",
        "meta_norad_cat_id": 31284,
        "meta_element_set_no": 999,
        "meta_rev_at_epoch": 95313,
        "meta_bstar": 0.000450329,
        "meta_mean_motion_dot": 6.47e-06,
        "meta_mean_motion_ddot": 0,
        "tle_line1": "1 31284U 99025BNS 25357.52983586  .00000647  00000+0  45033-3 0  9995",
        "tle_line2": "2 31284  99.7207  92.5583 0142304  29.6928 331.2216 13.97914234953138"
      },
      "geometry": {
        "type": "Point",
        "coordinates": [
          80.77171035321159,
          56.70818422693272
        ]
      }
    },
    {
      "type": "Feature",
      "properties": {
        "norad_id": 31285,
        "name": "FENGYUN 1C DEB",
        "group": "fengyun-1c-debris",
        "lat": 10.858910451449795,
        "lon": -20.918043647828352,
        "alt_km": 906.5989895211596,
        "timestamp": "2025-12-26T16:33:55.852572+00:00",
        "meta_object_name": "FENGYUN 1C DEB",
        "meta_object_id": "1999-025BNT",
        "meta_epoch": "2025-12-26T05:02:09.173760",
        "meta_mean_motion": 14.26051594,
        "meta_eccentricity": 0.0200425,
        "meta_inclination": 98.521,
        "meta_ra_of_asc_node": 340.2624,
        "meta_arg_of_pericenter": 147.4298,
        "meta_mean_anomaly": 280.4363,
        "meta_ephemeris_type": 0,
        "meta_classification_type": "U",
        "meta_norad_cat_id": 31285,
        "meta_element_set_no": 999,
        "meta_rev_at_epoch": 97491,
        "meta_bstar": 0.00015364255,
        "meta_mean_motion_dot": 4.08e-06,
        "meta_mean_motion_ddot": 0,
        "tle_line1": "1 31285U 99025BNT 25360.20982840  .00000408  00000+0  15364-3 0  9996",
        "tle_line2": "2 31285  98.5210 340.2624 0200425 147.4298 280.4363 14.26051594974918"
      },
      "geometry": {
        "type": "Point",
        "coordinates": [
          -20.918043647828352,
          10.858910451449795
        ]
      }
    },
    {
      "type": "Feature",
      "properties": {
        "norad_id": 31286,
        "name": "FENGYUN 1C DEB",
        "group": "fengyun-1c-debris",
        "lat": -19.16475876188254,
        "lon": -101.6496093954576,
        "alt_km": 828.2480888707569,
        "timestamp": "2025-12-26T16:33:55.852581+00:00",
        "meta_object_name": "FENGYUN 1C DEB",
        "meta_object_id": "1999-025BNU",
        "meta_epoch": "2025-12-24T10:39:17.716320",
        "meta_mean_motion": 14.22891604,
        "meta_eccentricity": 0.00786424,
        "meta_inclination": 100.8587,
        "meta_ra_of_asc_node": 251.7618,
        "meta_arg_of_pericenter": 248.2654,
        "meta_mean_anomaly": 111.0132,
        "meta_ephemeris_type": 0,
        "meta_classification_type": "U",
        "meta_norad_cat_id": 31286,
        "meta_element_set_no": 999,
        "meta_rev_at_epoch": 64186,
        "meta_bstar": 0.0027763524,
        "meta_mean_motion_dot": 6.385e-05,
        "meta_mean_motion_ddot": 0,
        "tle_line1": "1 31286U 99025BNU 25358.44395505  .00006385  00000+0  27764-2 0  9992",
        "tle_line2": "2 31286 100.8587 251.7618 0078642 248.2654 111.0132 14.22891604641860"
      },
      "geometry": {
        "type": "Point",
        "coordinates": [
          -101.6496093954576,
          -19.16475876188254
        ]
      }
    }
  ]
}